{
    "links": {
        "self": "http://www.neowsapp.com/rest/v1/neo/3392309?api_key=iIulBulltgU6a56xZRHN4H3l9WmuAYTsLGpBGhQ2"
    },
    "id": "3392309",
    "neo_reference_id": "3392309",
    "name": "(2007 VL3)",
    "designation": "2007 VL3",
    "nasa_jpl_url": "http://ssd.jpl.nasa.gov/sbdb.cgi?sstr=3392309",
    "absolute_magnitude_h": 26.1,
    "estimated_diameter": {
        "kilometers": {
            "estimated_diameter_min": 0.0160160338,
            "estimated_diameter_max": 0.0358129403
        },
        "meters": {
            "estimated_diameter_min": 16.0160337979,
            "estimated_diameter_max": 35.8129403019
        },
        "miles": {
            "estimated_diameter_min": 0.0099518989,
            "estimated_diameter_max": 0.0222531225
        },
        "feet": {
            "estimated_diameter_min": 52.5460443254,
            "estimated_diameter_max": 117.4965270602
        }
    },
    "is_potentially_hazardous_asteroid": false,
    "close_approach_data": [
        {
            "close_approach_date": "2007-10-29",
            "close_approach_date_full": "2007-Oct-29 19:01",
            "epoch_date_close_approach": 1193684460000,
            "relative_velocity": {
                "kilometers_per_second": "12.5295102682",
                "kilometers_per_hour": "45106.2369656622",
                "miles_per_hour": "28027.2615190249"
            },
            "miss_distance": {
                "astronomical": "0.0077159743",
                "lunar": "3.0015140027",
                "kilometers": "1154293.320254741",
                "miles": "717244.6101317858"
            },
            "orbiting_body": "Earth"
        },
        {
            "close_approach_date": "2007-10-29",
            "close_approach_date_full": "2007-Oct-29 23:36",
            "epoch_date_close_approach": 1193700960000,
            "relative_velocity": {
                "kilometers_per_second": "13.232035892",
                "kilometers_per_hour": "47635.3292110607",
                "miles_per_hour": "29598.7410867282"
            },
            "miss_distance": {
                "astronomical": "0.0083308709",
                "lunar": "3.2407087801",
                "kilometers": "1246280.541884983",
                "miles": "774402.8191914454"
            },
            "orbiting_body": "Moon"
        },
        {
            "close_approach_date": "2021-11-07",
            "close_approach_date_full": "2021-Nov-07 23:15",
            "epoch_date_close_approach": 1636326900000,
            "relative_velocity": {
                "kilometers_per_second": "16.9732646588",
                "kilometers_per_hour": "61103.75277164",
                "miles_per_hour": "37967.4957152449"
            },
            "miss_distance": {
                "astronomical": "0.1521964506",
                "lunar": "59.2044192834",
                "kilometers": "22768264.831320222",
                "miles": "14147543.7358621836"
            },
            "orbiting_body": "Earth"
        }
    ],
    "orbital_data": {
        "orbit_id": "7",
        "orbit_determination_date": "2017-04-06 09:05:25",
        "first_observation_date": "2007-11-02",
        "last_observation_date": "2007-11-09",
        "data_arc_in_days": 7,
        "observations_used": 25,
        "orbit_uncertainty": "8",
        "minimum_orbit_intersection": ".0069359",
        "jupiter_tisserand_invariant": "4.522",
        "epoch_osculation": "2454410.5",
        "eccentricity": ".4522125881960266",
        "semi_major_axis": "1.453350302507597",
        "inclination": "2.333161958033973",
        "ascending_node_longitude": "225.3814838653475",
        "orbital_period": "639.9615548699038",
        "perihelion_distance": ".7961270006551585",
        "perihelion_argument": "101.3415583937527",
        "aphelion_distance": "2.110573604360036",
        "perihelion_time": "2454354.986090799017",
        "mean_anomaly": "31.22844983464137",
        "mean_motion": ".5625337916950082",
        "equinox": "J2000",
        "orbit_class": {
            "orbit_class_type": "APO",
            "orbit_class_description": "Near-Earth asteroid orbits which cross the Earth’s orbit similar to that of 1862 Apollo",
            "orbit_class_range": "a (semi-major axis) > 1.0 AU; q (perihelion) < 1.017 AU"
        }
    },
    "is_sentry_object": false
}